start=new Date('2022-12-04T00:00:00.000Z').valueOf();
sats=[{"ECCENTRICITY":"0.00036070","DECAY_DATE":null,"TLE_LINE2":"2 53854  53.2139 243.2851 0003607   8.7868  87.3239 15.73199909  1307","LAUNCH_DATE":"2022-09-19","FILE":"3680595","BSTAR":"0.00021307000000","REV_AT_EPOCH":"130","APOAPSIS":"352.187","COUNTRY_CODE":"US","CLASSIFICATION_TYPE":"U","RCS_SIZE":"LARGE","SITE":"AFETR","NORAD_CAT_ID":"53854","TLE_LINE1":"1 53854U 22114AN  22337.91667824  .00029393  00000-0  21307-3 0  9997","GP_ID":"219482424","OBJECT_NAME":"STARLINK-4800","MEAN_MOTION":"15.73199909","PERIOD":"91.533","REF_FRAME":"TEME","PERIAPSIS":"347.334","MEAN_MOTION_DOT":"0.00029393","OBJECT_TYPE":"PAYLOAD","EPOCH":"2022-12-03T22:00:00.999936","MEAN_MOTION_DDOT":"0.0000000000000","MEAN_ELEMENT_THEORY":"SGP4","TIME_SYSTEM":"UTC","OBJECT_ID":"2022-114AN","INCLINATION":"53.2139","RA_OF_ASC_NODE":"243.2851","CENTER_NAME":"EARTH","SEMIMAJOR_AXIS":"6727.895","EPHEMERIS_TYPE":"0","ARG_OF_PERICENTER":"8.7868","ELEMENT_SET_NO":"999","MEAN_ANOMALY":"87.3239"},{"MEAN_ELEMENT_THEORY":"SGP4","MEAN_MOTION_DDOT":"0.0000000000000","EPOCH":"2022-12-03T22:00:00.999936","OBJECT_TYPE":"PAYLOAD","CENTER_NAME":"EARTH","SEMIMAJOR_AXIS":"6824.562","RA_OF_ASC_NODE":"245.2228","INCLINATION":"53.2170","TIME_SYSTEM":"UTC","OBJECT_ID":"2022-114AP","ARG_OF_PERICENTER":"96.0240","EPHEMERIS_TYPE":"0","MEAN_ANOMALY":"117.4403","ELEMENT_SET_NO":"999","RCS_SIZE":"LARGE","CLASSIFICATION_TYPE":"U","COUNTRY_CODE":"US","REV_AT_EPOCH":"130","APOAPSIS":"447.339","TLE_LINE2":"2 53855  53.2170 245.2228 0001337  96.0240 117.4403 15.39893184  1301","BSTAR":"-0.03393000000000","FILE":"3680595","LAUNCH_DATE":"2022-09-19","ECCENTRICITY":"0.00013370","DECAY_DATE":null,"GP_ID":"219482615","TLE_LINE1":"1 53855U 22114AP  22337.91667824 -.01240642  00000-0 -33930-1 0  9996","NORAD_CAT_ID":"53855","SITE":"AFETR","MEAN_MOTION":"15.39893184","OBJECT_NAME":"STARLINK-4703","MEAN_MOTION_DOT":"-0.01240642","PERIAPSIS":"445.514","REF_FRAME":"TEME","PERIOD":"93.513"},{"ELEMENT_SET_NO":"999","MEAN_ANOMALY":"88.7935","EPHEMERIS_TYPE":"0","ARG_OF_PERICENTER":"10.3426","INCLINATION":"53.2138","TIME_SYSTEM":"UTC","OBJECT_ID":"2022-114AQ","RA_OF_ASC_NODE":"243.2778","SEMIMAJOR_AXIS":"6727.639","CENTER_NAME":"EARTH","MEAN_MOTION_DDOT":"0.0000000000000","OBJECT_TYPE":"PAYLOAD","EPOCH":"2022-12-03T22:00:00.999936","MEAN_ELEMENT_THEORY":"SGP4","REF_FRAME":"TEME","PERIOD":"91.528","PERIAPSIS":"347.005","MEAN_MOTION_DOT":"-0.00147150","OBJECT_NAME":"STARLINK-4795","MEAN_MOTION":"15.73289711","NORAD_CAT_ID":"53856","SITE":"AFETR","TLE_LINE1":"1 53856U 22114AQ  22337.91667824 -.00147150  00000-0 -10578-2 0  9990","GP_ID":"219482801","FILE":"3680595","TLE_LINE2":"2 53856  53.2138 243.2778 0003715  10.3426  88.7935 15.73289711  1304","BSTAR":"-0.00105780000000","LAUNCH_DATE":"2022-09-19","ECCENTRICITY":"0.00037150","DECAY_DATE":null,"REV_AT_EPOCH":"130","APOAPSIS":"352.004","RCS_SIZE":"LARGE","CLASSIFICATION_TYPE":"U","COUNTRY_CODE":"US"},{"EPOCH":"2022-12-03T22:00:00.999936","OBJECT_TYPE":"PAYLOAD","MEAN_MOTION_DDOT":"0.0000000000000","MEAN_ELEMENT_THEORY":"SGP4","RA_OF_ASC_NODE":"245.1984","TIME_SYSTEM":"UTC","OBJECT_ID":"2022-114AR","INCLINATION":"53.2173","CENTER_NAME":"EARTH","SEMIMAJOR_AXIS":"6822.952","EPHEMERIS_TYPE":"0","ARG_OF_PERICENTER":"93.9846","ELEMENT_SET_NO":"999","MEAN_ANOMALY":"131.8453","REV_AT_EPOCH":"130","APOAPSIS":"445.747","ECCENTRICITY":"0.00013630","DECAY_DATE":null,"BSTAR":"-0.03116000000000","TLE_LINE2":"2 53857  53.2173 245.1984 0001363  93.9846 131.8453 15.40438281  1301","FILE":"3680595","LAUNCH_DATE":"2022-09-19","COUNTRY_CODE":"US","RCS_SIZE":"LARGE","CLASSIFICATION_TYPE":"U","TLE_LINE1":"1 53857U 22114AR  22337.91667824 -.01167219  00000-0 -31160-1 0  9999","SITE":"AFETR","NORAD_CAT_ID":"53857","GP_ID":"219482237","OBJECT_NAME":"STARLINK-4809","MEAN_MOTION":"15.40438281","PERIOD":"93.480","REF_FRAME":"TEME","MEAN_MOTION_DOT":"-0.01167219","PERIAPSIS":"443.887"},{"CENTER_NAME":"EARTH","SEMIMAJOR_AXIS":"6727.954","RA_OF_ASC_NODE":"243.2828","INCLINATION":"53.2146","TIME_SYSTEM":"UTC","OBJECT_ID":"2022-114AS","MEAN_ELEMENT_THEORY":"SGP4","MEAN_MOTION_DDOT":"0.0000000000000","EPOCH":"2022-12-03T22:00:00.999936","OBJECT_TYPE":"PAYLOAD","MEAN_ANOMALY":"86.6766","ELEMENT_SET_NO":"999","EPHEMERIS_TYPE":"0","ARG_OF_PERICENTER":"10.1310","GP_ID":"219482038","TLE_LINE1":"1 53858U 22114AS  22337.91667824  .00025616  00000-0  18650-3 0  9992","NORAD_CAT_ID":"53858","SITE":"AFETR","RCS_SIZE":"LARGE","CLASSIFICATION_TYPE":"U","COUNTRY_CODE":"US","REV_AT_EPOCH":"130","APOAPSIS":"352.374","TLE_LINE2":"2 53858  53.2146 243.2828 0003798  10.1310  86.6766 15.73179489  1301","FILE":"3680595","BSTAR":"0.00018650000000","LAUNCH_DATE":"2022-09-19","DECAY_DATE":null,"ECCENTRICITY":"0.00037980","MEAN_MOTION_DOT":"0.00025616","PERIAPSIS":"347.263","REF_FRAME":"TEME","PERIOD":"91.534","MEAN_MOTION":"15.73179489","OBJECT_NAME":"STARLINK-4798"},{"LAUNCH_DATE":"2022-09-19","TLE_LINE2":"2 53859  53.2168 243.5116 0001023  77.6696 265.0415 15.60881208  1302","FILE":"3680595","BSTAR":"-0.01519800000000","DECAY_DATE":null,"ECCENTRICITY":"0.00010230","REV_AT_EPOCH":"130","APOAPSIS":"385.804","RCS_SIZE":"LARGE","CLASSIFICATION_TYPE":"U","COUNTRY_CODE":"US","NORAD_CAT_ID":"53859","SITE":"AFETR","TLE_LINE1":"1 53859U 22114AT  22337.91667824 -.01166864  00000-0 -15198-1 0  9999","GP_ID":"219482992","OBJECT_NAME":"STARLINK-4790","MEAN_MOTION":"15.60881208","REF_FRAME":"TEME","PERIOD":"92.256","PERIAPSIS":"384.421","MEAN_MOTION_DOT":"-0.01166864","MEAN_MOTION_DDOT":"0.0000000000000","EPOCH":"2022-12-03T22:00:00.999936","OBJECT_TYPE":"PAYLOAD","MEAN_ELEMENT_THEORY":"SGP4","INCLINATION":"53.2168","OBJECT_ID":"2022-114AT","TIME_SYSTEM":"UTC","RA_OF_ASC_NODE":"243.5116","CENTER_NAME":"EARTH","SEMIMAJOR_AXIS":"6763.247","EPHEMERIS_TYPE":"0","ARG_OF_PERICENTER":"77.6696","ELEMENT_SET_NO":"999","MEAN_ANOMALY":"265.0415"},{"MEAN_MOTION_DDOT":"0.0000000000000","OBJECT_TYPE":"PAYLOAD","EPOCH":"2022-12-03T22:00:00.999936","MEAN_ELEMENT_THEORY":"SGP4","INCLINATION":"53.2138","TIME_SYSTEM":"UTC","OBJECT_ID":"2022-114AU","RA_OF_ASC_NODE":"243.2792","CENTER_NAME":"EARTH","SEMIMAJOR_AXIS":"6727.785","EPHEMERIS_TYPE":"0","ARG_OF_PERICENTER":"4.4351","ELEMENT_SET_NO":"999","MEAN_ANOMALY":"94.1324","TLE_LINE2":"2 53860  53.2138 243.2792 0003763   4.4351  94.1324 15.73238493  1303","BSTAR":"-0.00057790000000","FILE":"3680595","LAUNCH_DATE":"2022-09-19","DECAY_DATE":null,"ECCENTRICITY":"0.00037630","APOAPSIS":"352.182","REV_AT_EPOCH":"130","CLASSIFICATION_TYPE":"U","RCS_SIZE":"LARGE","COUNTRY_CODE":"US","NORAD_CAT_ID":"53860","SITE":"AFETR","TLE_LINE1":"1 53860U 22114AU  22337.91667824 -.00081121  00000-0 -57790-3 0  9998","GP_ID":"219483179","OBJECT_NAME":"STARLINK-4799","MEAN_MOTION":"15.73238493","REF_FRAME":"TEME","PERIOD":"91.531","PERIAPSIS":"347.119","MEAN_MOTION_DOT":"-0.00081121"},{"TLE_LINE2":"2 53861  53.2132 243.2803 0003749   3.3026  93.9882 15.73254108  1309","BSTAR":"-0.00049502000000","FILE":"3680595","LAUNCH_DATE":"2022-09-19","ECCENTRICITY":"0.00037490","DECAY_DATE":null,"APOAPSIS":"352.128","REV_AT_EPOCH":"130","RCS_SIZE":"LARGE","CLASSIFICATION_TYPE":"U","COUNTRY_CODE":"US","NORAD_CAT_ID":"53861","SITE":"AFETR","TLE_LINE1":"1 53861U 22114AV  22337.91667824 -.00069716  00000-0 -49502-3 0  9997","GP_ID":"219481851","OBJECT_NAME":"STARLINK-4781","MEAN_MOTION":"15.73254108","REF_FRAME":"TEME","PERIOD":"91.530","PERIAPSIS":"347.084","MEAN_MOTION_DOT":"-0.00069716","MEAN_MOTION_DDOT":"0.0000000000000","EPOCH":"2022-12-03T22:00:00.999936","OBJECT_TYPE":"PAYLOAD","MEAN_ELEMENT_THEORY":"SGP4","INCLINATION":"53.2132","OBJECT_ID":"2022-114AV","TIME_SYSTEM":"UTC","RA_OF_ASC_NODE":"243.2803","SEMIMAJOR_AXIS":"6727.741","CENTER_NAME":"EARTH","EPHEMERIS_TYPE":"0","ARG_OF_PERICENTER":"3.3026","ELEMENT_SET_NO":"999","MEAN_ANOMALY":"93.9882"},{"ELEMENT_SET_NO":"999","MEAN_ANOMALY":"97.8965","EPHEMERIS_TYPE":"0","ARG_OF_PERICENTER":"1.8914","RA_OF_ASC_NODE":"243.2774","TIME_SYSTEM":"UTC","OBJECT_ID":"2022-114AW","INCLINATION":"53.2140","SEMIMAJOR_AXIS":"6727.692","CENTER_NAME":"EARTH","EPOCH":"2022-12-03T22:00:00.999936","OBJECT_TYPE":"PAYLOAD","MEAN_MOTION_DDOT":"0.0000000000000","MEAN_ELEMENT_THEORY":"SGP4","PERIOD":"91.529","REF_FRAME":"TEME","MEAN_MOTION_DOT":"-0.00117303","PERIAPSIS":"347.068","OBJECT_NAME":"STARLINK-4792","MEAN_MOTION":"15.73271372","TLE_LINE1":"1 53862U 22114AW  22337.91667824 -.00117303  00000-0 -84005-3 0  9991","SITE":"AFETR","NORAD_CAT_ID":"53862","GP_ID":"219482425","REV_AT_EPOCH":"130","APOAPSIS":"352.045","ECCENTRICITY":"0.00036990","DECAY_DATE":null,"TLE_LINE2":"2 53862  53.2140 243.2774 0003699   1.8914  97.8965 15.73271372  1306","FILE":"3680595","LAUNCH_DATE":"2022-09-19","BSTAR":"-0.00084005000000","COUNTRY_CODE":"US","RCS_SIZE":"LARGE","CLASSIFICATION_TYPE":"U"},{"OBJECT_NAME":"STARLINK-4788","MEAN_MOTION":"15.73261577","PERIOD":"91.530","REF_FRAME":"TEME","MEAN_MOTION_DOT":"-0.00076675","PERIAPSIS":"347.057","REV_AT_EPOCH":"130","APOAPSIS":"352.112","ECCENTRICITY":"0.00037570","DECAY_DATE":null,"TLE_LINE2":"2 53863  53.2139 243.2791 0003757   3.7279  94.1799 15.73261577  1305","FILE":"3680595","BSTAR":"-0.00054515000000","LAUNCH_DATE":"2022-09-19","COUNTRY_CODE":"US","CLASSIFICATION_TYPE":"U","RCS_SIZE":"LARGE","TLE_LINE1":"1 53863U 22114AX  22337.91667824 -.00076675  00000-0 -54515-3 0  9991","SITE":"AFETR","NORAD_CAT_ID":"53863","GP_ID":"219482616","EPHEMERIS_TYPE":"0","ARG_OF_PERICENTER":"3.7279","ELEMENT_SET_NO":"999","MEAN_ANOMALY":"94.1799","OBJECT_TYPE":"PAYLOAD","EPOCH":"2022-12-03T22:00:00.999936","MEAN_MOTION_DDOT":"0.0000000000000","MEAN_ELEMENT_THEORY":"SGP4","RA_OF_ASC_NODE":"243.2791","TIME_SYSTEM":"UTC","OBJECT_ID":"2022-114AX","INCLINATION":"53.2139","SEMIMAJOR_AXIS":"6727.720","CENTER_NAME":"EARTH"}];
